IRIDIUM 26              
1 24903U 97043A   25157.60285676  .00000413  00000+0  13254-3 0  9996
2 24903  86.3948 115.0687 0002461  89.0993 271.0486 14.37138481455223
IRIDIUM 22              
1 24907U 97043E   25157.59361968  .00000369  00000+0  12038-3 0  9996
2 24907  86.3952 118.6026 0002354  86.0462 274.1004 14.35952332455257
DUMMY MASS 1            
1 24925U 97048A   25157.38083771  .00000423  00000+0  44104-4 0  9992
2 24925  86.3343 140.3254 0006878 164.3507 195.7932 14.86978920503520
DUMMY MASS 2            
1 24926U 97048B   25157.40848647  .00000405  00000+0  42375-4 0  9995
2 24926  86.3344 141.9174 0007135 177.4751 182.6511 14.86731111503306
IRIDIUM 29              
1 24944U 97051A   25157.34165922  .00000445  00000+0  14503-3 0  9995
2 24944  86.3961 148.4457 0002168  85.1147 275.0298 14.36459918451715
IRIDIUM 33              
1 24946U 97051C   25157.38132714  .00000294  00000+0  96503-4 0  9997
2 24946  86.3876 147.6882 0009966 108.3828 251.8453 14.34886680451197
IRIDIUM 28              
1 24948U 97051E   25157.39197869  .00000373  00000+0  11843-3 0  9993
2 24948  86.3965 145.9475 0002731  94.3911 265.7598 14.37379845452296
IRIDIUM 36              
1 24967U 97056C   25157.28739506  .00000386  00000+0  12227-3 0  9998
2 24967  86.3988 177.5739 0002564  87.3563 272.7928 14.37602344450651
